NORAD_CAT_ID,OBJECT_NAME,OBJECT_TYPE,EPOCH,MEAN_MOTION,ECCENTRICITY,INCLINATION,RA_OF_ASC_NODE,ARG_OF_PERICENTER,MEAN_ANOMALY,BSTAR,MEAN_MOTION_DOT,MEAN_MOTION_DDOT,TLE_LINE0,TLE_LINE1,TLE_LINE2,SEMIMAJOR_AXIS,PERIOD,APOGEE,PERIGEE,DECAYED
53842.0,STARLINK-4754,PAYLOAD,2023-04-30 11:48:23,15.08840876,0.0001062,53.2142,301.6792,90.4357,269.6756,0.0001659,2.354e-05,0.0,0 STARLINK-4754,1 53842U 22114AA  23120.49193619  .00002354  00000-0  16590-3 0  9990,2 53842  53.2142 301.6792 0001062  90.4357 269.6756 15.08840876 34797,6917.878,95.437,540.477,539.008,0.0
53842.0,STARLINK-4754,PAYLOAD,2023-04-30 18:09:55,15.08842692,0.0001019,53.2148,300.4886,87.7306,272.3802,0.00015349,2.156e-05,0.0,0 STARLINK-4754,1 53842U 22114AA  23120.75689585  .00002156  00000-0  15349-3 0  9992,2 53842  53.2148 300.4886 0001019  87.7306 272.3802 15.08842692 35375,6917.872,95.437,540.442,539.032,0.0
53842.0,STARLINK-4754,PAYLOAD,2023-05-01 19:36:05,15.08845016,9.27e-05,53.2148,295.7304,107.5078,252.6016,0.00012787,1.748e-05,0.0,0 STARLINK-4754,1 53842U 22114AA  23121.81673466  .00001748  00000-0  12787-3 0  9990,2 53842  53.2148 295.7304 0000927 107.5078 252.6016 15.08845016 34998,6917.865,95.437,540.371,539.089,0.0
53842.0,STARLINK-4754,PAYLOAD,2023-05-02 11:29:57,15.08843232,9.39e-05,53.215,292.7562,96.8774,263.2324,0.00012781,1.747e-05,0.0,0 STARLINK-4754,1 53842U 22114AA  23122.47913603  .00001747  00000-0  12781-3 0  9996,2 53842  53.2150 292.7562 0000939  96.8774 263.2324 15.08843232 35630,6917.871,95.437,540.385,539.086,0.0
53842.0,STARLINK-4754,PAYLOAD,2023-05-02 19:26:52,15.08849419,0.0001034,53.2152,291.2698,82.1375,277.9735,0.00019507,2.819e-05,0.0,0 STARLINK-4754,1 53842U 22114AA  23122.81033252  .00002819  00000-0  19507-3 0  9991,2 53842  53.2152 291.2698 0001034  82.1375 277.9735 15.08849419 35684,6917.852,95.437,540.432,539.001,0.0
53842.0,STARLINK-4754,PAYLOAD,2023-05-03 11:20:44,15.08838219,0.0001135,53.216,288.2958,90.2148,269.8974,5.822e-05,6.39e-06,0.0,0 STARLINK-4754,1 53842U 22114AA  23123.47273829  .00000639  00000-0  58220-4 0  9994,2 53842  53.2160 288.2958 0001135  90.2148 269.8974 15.08838219 35241,6917.886,95.438,540.536,538.966,0.0
53842.0,STARLINK-4754,PAYLOAD,2023-05-03 20:53:03,15.08837582,0.0001076,53.2169,286.5099,95.8306,264.2808,5.1255e-05,5.28e-06,0.0,0 STARLINK-4754,1 53842U 22114AA  23123.87017970  .00000528  00000-0  51255-4 0  9999,2 53842  53.2169 286.5099 0001076  95.8306 264.2808 15.08837582 35841,6917.888,95.438,540.497,539.008,0.0
53842.0,STARLINK-4754,PAYLOAD,2023-05-04 11:11:31,15.08839574,0.0001021,53.2167,283.8346,87.7586,272.3523,1.895e-05,1.4e-07,0.0,0 STARLINK-4754,1 53842U 22114AA  23124.46634012  .00000014  00000-0  18950-4 0  9992,2 53842  53.2167 283.8346 0001021  87.7586 272.3523 15.08839574 35931,6917.882,95.438,540.453,539.04,0.0
53842.0,STARLINK-4754,PAYLOAD,2023-05-04 14:22:17,15.0884365,9.87e-05,53.2164,283.2395,93.7238,266.3867,2.9802e-05,1.87e-06,0.0,0 STARLINK-4754,1 53842U 22114AA  23124.59881714  .00000187  00000-0  29802-4 0  9998,2 53842  53.2164 283.2395 0000987  93.7238 266.3867 15.08843650 35414,6917.869,95.437,540.417,539.051,0.0
53842.0,STARLINK-4754,PAYLOAD,2023-05-04 15:57:40,15.08844336,0.0001085,53.2168,282.9424,82.9582,277.1533,3.5462e-05,2.77e-06,0.0,0 STARLINK-4754,1 53842U 22114AA  23124.66505702  .00000277  00000-0  35462-4 0  9995,2 53842  53.2168 282.9424 0001085  82.9582 277.1533 15.08844336 35961,6917.867,95.437,540.483,538.982,0.0
53842.0,STARLINK-4754,PAYLOAD,2023-05-05 09:26:56,15.08821965,0.0001503,53.2178,279.6774,103.7114,256.4045,0.00026661,3.956e-05,0.0,0 STARLINK-4754,1 53842U 22114AA  23125.39370409  .00003956  00000-0  26661-3 0  9997,2 53842  53.2178 279.6774 0001503 103.7114 256.4045 15.08821965 35535,6917.936,95.439,540.84,538.761,0.0
53842.0,STARLINK-4754,PAYLOAD,2023-05-05 20:34:37,15.08835906,0.0001081,53.2159,277.5916,93.1498,266.9618,8.4081e-05,1.05e-05,0.0,0 STARLINK-4754,1 53842U 22114AA  23125.85738358  .00001050  00000-0  84081-4 0  9993,2 53842  53.2159 277.5916 0001081  93.1498 266.9618 15.08835906 36147,6917.893,95.438,540.506,539.01,0.0
53842.0,STARLINK-4754,PAYLOAD,2023-05-06 15:39:15,15.08847018,0.0001004,53.2149,274.0233,83.0259,277.0848,0.00017885,2.56e-05,0.0,0 STARLINK-4754,1 53842U 22114AA  23126.65225940  .00002560  00000-0  17885-3 0  9994,2 53842  53.2149 274.0233 0001004  83.0259 277.0848 15.08847018 36266,6917.859,95.437,540.418,539.029,0.0
53842.0,STARLINK-4754,PAYLOAD,2023-05-07 02:46:57,15.08842543,0.0001615,53.2148,271.9374,71.6596,288.4572,0.00014388,2.003e-05,0.0,0 STARLINK-4754,1 53842U 22114AA  23127.11594236  .00002003  00000-0  14388-3 0  9990,2 53842  53.2148 271.9374 0001615  71.6596 288.4572 15.08842543 35797,6917.873,95.437,540.855,538.62,0.0
53842.0,STARLINK-4754,PAYLOAD,2023-05-07 12:19:17,15.08825346,0.0001645,53.2144,270.1569,75.5013,284.6161,-6.2924e-05,-1.289e-05,0.0,0 STARLINK-4754,1 53842U 22114AA  23127.51339231 -.00001289  00000-0 -62924-4 0  9993,2 53842  53.2144 270.1569 0001645  75.5013 284.6161 15.08825346 35851,6917.925,95.438,540.928,538.652,0.0
53842.0,STARLINK-4754,PAYLOAD,2023-05-07 13:54:40,15.08824683,0.0001047,53.2149,269.8617,69.766,290.3445,-0.00010466,-1.952e-05,0.0,0 STARLINK-4754,1 53842U 22114AA  23127.57963083 -.00001952  00000-0 -10466-3 0  9997,2 53842  53.2149 269.8617 0001047  69.7660 290.3445 15.08824683 36408,6917.927,95.439,540.517,539.068,0.0
53842.0,STARLINK-4754,PAYLOAD,2023-05-07 17:05:26,15.08834379,0.0001138,53.2154,269.2643,75.1088,285.003,9.0233e-05,1.148e-05,0.0,0 STARLINK-4754,1 53842U 22114AA  23127.71211023  .00001148  00000-0  90233-4 0  9999,2 53842  53.2154 269.2643 0001138  75.1088 285.0030 15.08834379 36429,6917.898,95.438,540.55,538.975,0.0
53842.0,STARLINK-4754,PAYLOAD,2023-05-08 02:37:44,15.08839776,0.0001065,53.2156,267.4801,74.5,285.611,0.00016931,2.408e-05,0.0,0 STARLINK-4754,1 53842U 22114AA  23128.10954825  .00002408  00000-0  16931-3 0  9999,2 53842  53.2156 267.4801 0001065  74.5000 285.6110 15.08839776 35940,6917.881,95.438,540.483,539.009,0.0
53842.0,STARLINK-4754,PAYLOAD,2023-05-08 15:20:49,15.08858511,0.0001185,53.2151,265.1016,66.0506,294.061,0.001153,0.00018119,0.0,0 STARLINK-4754,1 53842U 22114AA  23128.63946635  .00018119  00000-0  11530-2 0  9992,2 53842  53.2151 265.1016 0001185  66.0506 294.0610 15.08858511 36025,6917.824,95.436,540.509,538.869,0.0
53842.0,STARLINK-4754,PAYLOAD,2023-05-09 13:36:13,15.08847284,0.0001234,53.215,260.94,67.2218,292.8905,0.00030671,4.598e-05,0.0,0 STARLINK-4754,1 53842U 22114AA  23129.56682625  .00004598  00000-0  30671-3 0  9995,2 53842  53.2150 260.9400 0001234  67.2218 292.8905 15.08847284 36705,6917.858,95.437,540.577,538.869,0.0
53842.0,STARLINK-4754,PAYLOAD,2023-05-10 11:51:37,15.08842662,0.0001176,53.2156,256.7739,98.0783,262.0342,7.5468e-05,9.14e-06,0.0,0 STARLINK-4754,1 53842U 22114AA  23130.49418639  .00000914  00000-0  75468-4 0  9993,2 53842  53.2156 256.7739 0001176  98.0783 262.0342 15.08842662 36847,6917.872,95.437,540.551,538.924,0.0
53842.0,STARLINK-4754,PAYLOAD,2023-05-10 16:37:46,15.08850043,0.0001076,53.2152,255.8818,92.0715,268.04,0.00010946,1.455e-05,0.0,0 STARLINK-4754,1 53842U 22114AA  23130.69290252  .00001455  00000-0  10946-3 0  9994,2 53842  53.2152 255.8818 0001076  92.0715 268.0400 15.08850043 36875,6917.85,95.437,540.459,538.97,0.0
53842.0,STARLINK-4754,PAYLOAD,2023-05-11 11:42:24,15.08847087,0.0001293,53.2157,252.311,115.4103,244.7023,0.00013288,1.828e-05,0.0,0 STARLINK-4754,1 53842U 22114AA  23131.48778231  .00001828  00000-0  13288-3 0  9996,2 53842  53.2157 252.3110 0001293 115.4103 244.7023 15.08847087 36459,6917.859,95.437,540.618,538.829,0.0
53842.0,STARLINK-4754,PAYLOAD,2023-05-11 13:17:47,15.08848081,0.0001217,53.2154,252.0151,110.0824,250.0299,0.00015251,2.141e-05,0.0,0 STARLINK-4754,1 53842U 22114AA  23131.55402194  .00002141  00000-0  15251-3 0  9997,2 53842  53.2154 252.0151 0001217 110.0824 250.0299 15.08848081 37007,6917.856,95.437,540.563,538.879,0.0
53842.0,STARLINK-4754,PAYLOAD,2023-05-12 00:25:29,15.08845906,0.0001011,53.2154,249.9351,93.274,266.8368,9.6775e-05,1.253e-05,0.0,0 STARLINK-4754,1 53842U 22114AA  23132.01770210  .00001253  00000-0  96775-4 0  9990,2 53842  53.2154 249.9351 0001011  93.2740 266.8368 15.08845906 37077,6917.862,95.437,540.427,539.028,0.0
53842.0,STARLINK-4754,PAYLOAD,2023-05-12 14:43:58,15.08833283,0.0001159,53.2151,247.2594,95.2653,264.8472,5.066e-05,5.18e-06,0.0,0 STARLINK-4754,1 53842U 22114AA  23132.61386931  .00000518  00000-0  50660-4 0  9995,2 53842  53.2151 247.2594 0001159  95.2653 264.8472 15.08833283 36621,6917.901,95.438,540.568,538.964,0.0
53842.0,STARLINK-4754,PAYLOAD,2023-05-13 12:59:21,15.08842643,0.0001023,53.2153,243.0998,105.8076,254.3029,8.4683e-05,1.06e-05,0.0,0 STARLINK-4754,1 53842U 22114AA  23133.54122456  .00001060  00000-0  84683-4 0  9993,2 53842  53.2153 243.0998 0001023 105.8076 254.3029 15.08842643 36769,6917.872,95.437,540.445,539.03,0.0
53842.0,STARLINK-4754,PAYLOAD,2023-05-14 00:07:04,15.08837025,9.5e-05,53.2154,241.0179,102.0106,258.0993,6.3677e-05,7.26e-06,0.0,0 STARLINK-4754,1 53842U 22114AA  23134.00490898  .00000726  00000-0  63677-4 0  9991,2 53842  53.2154 241.0179 0000950 102.0106 258.0993 15.08837025 36837,6917.889,95.438,540.412,539.097,0.0
53842.0,STARLINK-4754,PAYLOAD,2023-05-14 12:50:10,15.08830823,9.83e-05,53.2155,238.6389,90.2581,269.8524,-3.4913e-05,-8.43e-06,0.0,0 STARLINK-4754,1 53842U 22114AA  23134.53483885 -.00000843  00000-0 -34913-4 0  9990,2 53842  53.2155 238.6389 0000983  90.2581 269.8524 15.08830823 36912,6917.908,95.438,540.453,539.093,0.0
53842.0,STARLINK-4754,PAYLOAD,2023-05-14 16:00:55,15.08836166,0.0001318,53.2172,238.0397,87.2852,272.8291,2.7771e-05,1.54e-06,0.0,0 STARLINK-4754,1 53842U 22114AA  23134.66731408  .00000154  00000-0  27771-4 0  9998,2 53842  53.2172 238.0397 0001318  87.2852 272.8291 15.08836166 37477,6917.892,95.438,540.669,538.845,0.0
